STARLINK-2022           
1 47643U 21012Z   23263.89412901  .00008523  00000+0  59083-3 0  9995
2 47643  53.0524 135.4475 0001687  80.9452 279.1728 15.06369802144492
